IRIDIUM 116             
1 43072U 17083C   24032.34114340  .00000310  00000+0  10358-3 0  9999
2 43072  86.3998 324.2995 0002226  87.8379 272.3071 14.34219495319927
IRIDIUM 130             
1 43073U 17083D   24032.16989757  .00000006  00000+0 -48509-5 0  9996
2 43073  86.4007 324.5619 0001810  84.7278 275.4124 14.34217538319848
IRIDIUM 151             
1 43074U 17083E   24032.35384835  .00000473  00000+0  16189-3 0  9998
2 43074  86.4007 324.3332 0006138  51.1350 309.0393 14.34214812319895
IRIDIUM 134             
1 43075U 17083F   24032.11281328  .00000089  00000+0  24701-4 0  9999
2 43075  86.4005 324.4298 0001926  87.7611 272.3805 14.34217648319824
IRIDIUM 137             
1 43076U 17083G   24032.33479842  .00000402  00000+0  13650-3 0  9993
2 43076  86.4003 324.4122 0002408  92.9695 267.1777 14.34216171319926
IRIDIUM 141             
1 43077U 17083H   24031.77031347  .00000119  00000+0  35303-4 0  9990
2 43077  86.3999 324.5274 0002121  82.5505 277.5932 14.34216712319846
IRIDIUM 153             
1 43078U 17083J   24032.28064158  .00000294  00000+0  97868-4 0  9992
2 43078  86.3976 292.7631 0002379  73.9424 286.2034 14.34217303321024
IRIDIUM 131             
1 43079U 17083K   24031.75762856  .00000091  00000+0  25363-4 0  9990
2 43079  86.4006 324.6608 0002145  86.1558 273.9882 14.34217705319773
